[{"OBJECT_NAME":"SKYSAT-C6","OBJECT_ID":"2017-068F","EPOCH":"2026-03-09T21:33:49.392576","MEAN_MOTION":15.32504544,"ECCENTRICITY":0.00036369,"INCLINATION":97.44,"RA_OF_ASC_NODE":205.7173,"ARG_OF_PERICENTER":127.5085,"MEAN_ANOMALY":232.6488,"EPHEMERIS_TYPE":0,"CLASSIFICATION_TYPE":"U","NORAD_CAT_ID":42992,"ELEMENT_SET_NO":999,"REV_AT_EPOCH":46710,"BSTAR":0.00039699196,"MEAN_MOTION_DOT":0.0001239,"MEAN_MOTION_DDOT":0},{"OBJECT_NAME":"STARLINK-30714","OBJECT_ID":"2023-148E","EPOCH":"2026-03-09T06:26:10.169664","MEAN_MOTION":15.30192407,"ECCENTRICITY":0.00010686,"INCLINATION":53.1611,"RA_OF_ASC_NODE":26.4425,"ARG_OF_PERICENTER":87.7795,"MEAN_ANOMALY":272.3328,"EPHEMERIS_TYPE":0,"CLASSIFICATION_TYPE":"U","NORAD_CAT_ID":57939,"ELEMENT_SET_NO":999,"REV_AT_EPOCH":13835,"BSTAR":-1.9342131e-5,"MEAN_MOTION_DOT":-9.32e-6,"MEAN_MOTION_DDOT":0}]
